{
    "links": {
        "self": "http://www.neowsapp.com/rest/v1/neo/3789474?api_key=iIulBulltgU6a56xZRHN4H3l9WmuAYTsLGpBGhQ2"
    },
    "id": "3789474",
    "neo_reference_id": "3789474",
    "name": "(2017 WM1)",
    "designation": "2017 WM1",
    "nasa_jpl_url": "http://ssd.jpl.nasa.gov/sbdb.cgi?sstr=3789474",
    "absolute_magnitude_h": 23.3,
    "estimated_diameter": {
        "kilometers": {
            "estimated_diameter_min": 0.058150704,
            "estimated_diameter_max": 0.130028927
        },
        "meters": {
            "estimated_diameter_min": 58.1507039646,
            "estimated_diameter_max": 130.0289270043
        },
        "miles": {
            "estimated_diameter_min": 0.0361331611,
            "estimated_diameter_max": 0.0807962044
        },
        "feet": {
            "estimated_diameter_min": 190.7831555951,
            "estimated_diameter_max": 426.6041048727
        }
    },
    "is_potentially_hazardous_asteroid": false,
    "close_approach_data": [
        {
            "close_approach_date": "2017-11-25",
            "close_approach_date_full": "2017-Nov-25 23:56",
            "epoch_date_close_approach": 1511654160000,
            "relative_velocity": {
                "kilometers_per_second": "17.9997807812",
                "kilometers_per_hour": "64799.2108122354",
                "miles_per_hour": "40263.7096294137"
            },
            "miss_distance": {
                "astronomical": "0.1506292405",
                "lunar": "58.5947745545",
                "kilometers": "22533813.538517735",
                "miles": "14001862.457845343"
            },
            "orbiting_body": "Earth"
        }
    ],
    "orbital_data": {
        "orbit_id": "2",
        "orbit_determination_date": "2020-09-07 08:44:04",
        "first_observation_date": "2017-10-25",
        "last_observation_date": "2017-11-20",
        "data_arc_in_days": 26,
        "observations_used": 28,
        "orbit_uncertainty": "9",
        "minimum_orbit_intersection": ".140592",
        "jupiter_tisserand_invariant": "2.866",
        "epoch_osculation": "2458075.5",
        "eccentricity": ".6665751389377533",
        "semi_major_axis": "2.753303667923789",
        "inclination": "25.78403488693158",
        "ascending_node_longitude": "50.11781389093879",
        "orbital_period": "1668.705113830997",
        "perihelion_distance": ".9180198929396636",
        "perihelion_argument": "65.02156476329914",
        "aphelion_distance": "4.588587442907915",
        "perihelion_time": "2458125.052674055753",
        "mean_anomaly": "349.3096973742014",
        "mean_motion": ".2157361399663452",
        "equinox": "J2000",
        "orbit_class": {
            "orbit_class_type": "APO",
            "orbit_class_description": "Near-Earth asteroid orbits which cross the Earth’s orbit similar to that of 1862 Apollo",
            "orbit_class_range": "a (semi-major axis) > 1.0 AU; q (perihelion) < 1.017 AU"
        }
    },
    "is_sentry_object": false
}